[{"OBJECT_NAME":"STARLINK-30117","OBJECT_ID":"2023-067Q","EPOCH":"2026-03-09T00:31:23.930400","MEAN_MOTION":15.02540581,"ECCENTRICITY":0.0001437,"INCLINATION":43.0093,"RA_OF_ASC_NODE":278.5291,"ARG_OF_PERICENTER":272.1211,"MEAN_ANOMALY":87.9467,"EPHEMERIS_TYPE":0,"CLASSIFICATION_TYPE":"U","NORAD_CAT_ID":56702,"ELEMENT_SET_NO":999,"REV_AT_EPOCH":15555,"BSTAR":5.340765e-5,"MEAN_MOTION_DOT":5.18e-6,"MEAN_MOTION_DDOT":0},{"OBJECT_NAME":"CZ-6A DEB","OBJECT_ID":"2024-140BF","EPOCH":"2026-03-09T14:11:25.351296","MEAN_MOTION":14.73413114,"ECCENTRICITY":0.0141768,"INCLINATION":88.9712,"RA_OF_ASC_NODE":279.0945,"ARG_OF_PERICENTER":214.1655,"MEAN_ANOMALY":145.0382,"EPHEMERIS_TYPE":0,"CLASSIFICATION_TYPE":"U","NORAD_CAT_ID":60654,"ELEMENT_SET_NO":999,"REV_AT_EPOCH":8470,"BSTAR":0.0017796,"MEAN_MOTION_DOT":0.0001358,"MEAN_MOTION_DDOT":0}]
